NORAD_CAT_ID,OBJECT_NAME,OBJECT_TYPE,EPOCH,MEAN_MOTION,ECCENTRICITY,INCLINATION,RA_OF_ASC_NODE,ARG_OF_PERICENTER,MEAN_ANOMALY,BSTAR,MEAN_MOTION_DOT,MEAN_MOTION_DDOT,TLE_LINE0,TLE_LINE1,TLE_LINE2,SEMIMAJOR_AXIS,PERIOD,APOGEE,PERIGEE,DECAYED
52681.0,STARLINK-4068,PAYLOAD,2023-04-30 11:15:16,15.08837848,0.0001356,53.2142,151.8101,81.1437,278.9709,8.4095e-06,-1.54e-06,0.0,0 STARLINK-4068,1 52681U 22053AB  23120.46893661 -.00000154  00000-0  84095-5 0  9997,2 52681  53.2142 151.8101 0001356  81.1437 278.9709 15.08837848 53100,6917.887,95.438,540.69,538.814,0.0
52681.0,STARLINK-4068,PAYLOAD,2023-05-01 11:06:03,15.0883365,0.0001272,53.2143,147.3485,83.7979,276.3158,5.5514e-07,-2.79e-06,0.0,0 STARLINK-4068,1 52681U 22053AB  23121.46254198 -.00000279  00000-0  55514-6 0  9997,2 52681  53.2143 147.3485 0001272  83.7979 276.3158 15.08833650 53648,6917.9,95.438,540.645,538.885,0.0
52681.0,STARLINK-4068,PAYLOAD,2023-05-02 10:56:51,15.08834155,0.0001237,53.215,142.8885,80.5042,279.609,3.5159e-05,2.72e-06,0.0,0 STARLINK-4068,1 52681U 22053AB  23122.45614938  .00000272  00000-0  35159-4 0  9992,2 52681  53.2150 142.8885 0001237  80.5042 279.6090 15.08834155 53795,6917.898,95.438,540.619,538.908,0.0
52681.0,STARLINK-4068,PAYLOAD,2023-05-03 04:26:05,15.08838488,0.0001245,53.2156,139.6182,86.8139,273.2996,0.00012744,1.741e-05,0.0,0 STARLINK-4068,1 52681U 22053AB  23123.18478609  .00001741  00000-0  12744-3 0  9992,2 52681  53.2156 139.6182 0001245  86.8139 273.2996 15.08838488 53518,6917.885,95.438,540.611,538.889,0.0
52681.0,STARLINK-4068,PAYLOAD,2023-05-03 10:47:37,15.08840505,0.0001244,53.2157,138.4286,88.7577,271.3558,0.00013974,1.937e-05,0.0,0 STARLINK-4068,1 52681U 22053AB  23123.44974523  .00001937  00000-0  13974-3 0  9990,2 52681  53.2157 138.4286 0001244  88.7577 271.3558 15.08840505 53940,6917.879,95.438,540.604,538.883,0.0
52681.0,STARLINK-4068,PAYLOAD,2023-05-04 10:38:24,15.08852787,0.0001162,53.2143,133.9669,88.2521,271.8604,0.00026075,3.866e-05,0.0,0 STARLINK-4068,1 52681U 22053AB  23124.44333949  .00003866  00000-0  26075-3 0  9991,2 52681  53.2143 133.9669 0001162  88.2521 271.8604 15.08852787 53709,6917.841,95.437,540.51,538.902,0.0
52681.0,STARLINK-4068,PAYLOAD,2023-05-05 04:07:39,15.08840885,0.0001087,53.2148,130.6931,84.9152,275.1964,9.3092e-06,-1.4e-06,0.0,0 STARLINK-4068,1 52681U 22053AB  23125.17198647 -.00000140  00000-0  93092-5 0  9994,2 52681  53.2148 130.6931 0001087  84.9152 275.1964 15.08840885 53813,6917.878,95.437,540.495,538.991,0.0
52681.0,STARLINK-4068,PAYLOAD,2023-05-05 16:50:44,15.08842157,0.0001192,53.2152,128.3159,81.7421,278.3706,1.4604e-05,-5.5e-07,0.0,0 STARLINK-4068,1 52681U 22053AB  23125.70190470 -.00000055  00000-0  14604-4 0  9995,2 52681  53.2152 128.3159 0001192  81.7421 278.3706 15.08842157 54280,6917.874,95.437,540.563,538.914,0.0
52681.0,STARLINK-4068,PAYLOAD,2023-05-06 05:33:49,15.08841222,0.000119,53.2146,125.937,88.7163,271.3965,-2.9604e-05,-7.59e-06,0.0,0 STARLINK-4068,1 52681U 22053AB  23126.23182613 -.00000759  00000-0 -29604-4 0  9992,2 52681  53.2146 125.9370 0001190  88.7163 271.3965 15.08841222 54360,6917.877,95.437,540.565,538.918,0.0
52681.0,STARLINK-4068,PAYLOAD,2023-05-06 23:03:03,15.08842056,0.0001136,53.2153,122.6667,95.4183,264.6939,0.00011972,1.618e-05,0.0,0 STARLINK-4068,1 52681U 22053AB  23126.96046123  .00001618  00000-0  11972-3 0  9998,2 52681  53.2153 122.6667 0001136  95.4183 264.6939 15.08842056 54089,6917.874,95.437,540.525,538.953,0.0
52681.0,STARLINK-4068,PAYLOAD,2023-05-07 06:59:59,15.088451,0.0001138,53.2154,121.1799,95.5129,264.5993,0.00014022,1.945e-05,0.0,0 STARLINK-4068,1 52681U 22053AB  23127.29165920  .00001945  00000-0  14022-3 0  9994,2 52681  53.2154 121.1799 0001138  95.5129 264.5993 15.08845100 54524,6917.865,95.437,540.517,538.943,0.0
52681.0,STARLINK-4068,PAYLOAD,2023-05-08 03:40:00,15.08835767,0.0001126,53.2154,117.3136,91.8827,268.2294,6.974e-05,8.22e-06,0.0,0 STARLINK-4068,1 52681U 22053AB  23128.15278800  .00000822  00000-0  69740-4 0  9993,2 52681  53.2154 117.3136 0001126  91.8827 268.2294 15.08835767 54261,6917.893,95.438,540.537,538.979,0.0
52681.0,STARLINK-4068,PAYLOAD,2023-05-08 16:23:05,15.0883798,0.0001173,53.2153,114.9336,86.4838,273.6288,4.1561e-05,3.74e-06,0.0,0 STARLINK-4068,1 52681U 22053AB  23128.68270790  .00000374  00000-0  41561-4 0  9994,2 52681  53.2153 114.9336 0001173  86.4838 273.6288 15.08837980 54733,6917.887,95.438,540.563,538.94,0.0
52681.0,STARLINK-4068,PAYLOAD,2023-05-09 05:06:11,15.08841056,0.0001228,53.215,112.5555,83.5214,276.5918,4.5358e-06,-2.16e-06,0.0,0 STARLINK-4068,1 52681U 22053AB  23129.21262752 -.00000216  00000-0  45358-5 0  9998,2 52681  53.2150 112.5555 0001228  83.5214 276.5918 15.08841056 54421,6917.877,95.437,540.592,538.893,0.0
52681.0,STARLINK-4068,PAYLOAD,2023-05-10 04:56:57,15.08843988,0.0001325,53.2153,108.0947,89.5859,270.5285,0.00012272,1.666e-05,0.0,0 STARLINK-4068,1 52681U 22053AB  23130.20622323  .00001666  00000-0  12272-3 0  9999,2 52681  53.2153 108.0947 0001325  89.5859 270.5285 15.08843988 54964,6917.868,95.437,540.65,538.817,0.0
52681.0,STARLINK-4068,PAYLOAD,2023-05-10 16:04:39,15.08842585,0.0001308,53.2153,106.0133,88.5961,271.5181,0.00011063,1.473e-05,0.0,0 STARLINK-4068,1 52681U 22053AB  23130.66990411  .00001473  00000-0  11063-3 0  9998,2 52681  53.2153 106.0133 0001308  88.5961 271.5181 15.08842585 55030,6917.872,95.437,540.642,538.833,0.0
52681.0,STARLINK-4068,PAYLOAD,2023-05-11 04:47:44,15.08839025,0.0001347,53.2159,103.6325,96.6789,263.4356,0.00016262,2.301e-05,0.0,0 STARLINK-4068,1 52681U 22053AB  23131.19982562  .00002301  00000-0  16262-3 0  9992,2 52681  53.2159 103.6325 0001347  96.6789 263.4356 15.08839025 55111,6917.883,95.438,540.68,538.817,0.0
52681.0,STARLINK-4068,PAYLOAD,2023-05-12 04:38:32,15.08833631,0.0001082,53.2161,99.1768,85.1561,274.9555,3.3657e-05,2.48e-06,0.0,0 STARLINK-4068,1 52681U 22053AB  23132.19343356  .00000248  00000-0  33657-4 0  9991,2 52681  53.2161  99.1768 0001082  85.1561 274.9555 15.08833631 54878,6917.9,95.438,540.513,539.016,0.0
52681.0,STARLINK-4068,PAYLOAD,2023-05-13 04:29:19,15.0884006,0.0001117,53.216,94.7154,93.9508,266.1612,0.00015181,2.129e-05,0.0,0 STARLINK-4068,1 52681U 22053AB  23133.18702735  .00002129  00000-0  15181-3 0  9992,2 52681  53.2160  94.7154 0001117  93.9508 266.1612 15.08840060 55023,6917.88,95.438,540.518,538.972,0.0
52681.0,STARLINK-4068,PAYLOAD,2023-05-14 04:20:07,15.08826152,0.0001138,53.2162,90.257,105.1846,254.9272,-2.3536e-07,-2.92e-06,0.0,0 STARLINK-4068,1 52681U 22053AB  23134.18064373 -.00000292  00000-0 -23536-6 0  9999,2 52681  53.2162  90.2570 0001138 105.1846 254.9272 15.08826152 55171,6917.923,95.438,540.575,539.0,0.0
52681.0,STARLINK-4068,PAYLOAD,2023-05-14 05:55:30,15.08829544,0.0001077,53.2161,89.9579,96.3977,263.7137,2.002e-05,3.1e-07,0.0,0 STARLINK-4068,1 52681U 22053AB  23134.24688139  .00000031  00000-0  20020-4 0  9990,2 52681  53.2161  89.9579 0001077  96.3977 263.7137 15.08829544 55572,6917.912,95.438,540.522,539.032,0.0
52681.0,STARLINK-4068,PAYLOAD,2023-05-15 04:10:53,15.088467,9.07e-05,53.2159,85.7937,88.9416,271.168,7.886e-05,9.68e-06,0.0,0 STARLINK-4068,1 52681U 22053AB  23135.17423014  .00000968  00000-0  78860-4 0  9996,2 52681  53.2159  85.7937 0000907  88.9416 271.1680 15.08846700 55329,6917.86,95.437,540.352,539.097,0.0
52681.0,STARLINK-4068,PAYLOAD,2023-05-15 13:43:12,15.08838936,9.06e-05,53.2162,84.0094,96.2294,263.8801,0.00010719,1.419e-05,0.0,0 STARLINK-4068,1 52681U 22053AB  23135.57167384  .00001419  00000-0  10719-3 0  9995,2 52681  53.2162  84.0094 0000906  96.2294 263.8801 15.08838936 55385,6917.884,95.438,540.375,539.122,0.0
52681.0,STARLINK-4068,PAYLOAD,2023-05-16 05:37:03,15.08841383,9.17e-05,53.2166,81.0344,92.5596,267.5501,0.00011902,1.607e-05,0.0,0 STARLINK-4068,1 52681U 22053AB  23136.23407392  .00001607  00000-0  11902-3 0  9999,2 52681  53.2166  81.0344 0000917  92.5596 267.5501 15.08841383 55872,6917.876,95.437,540.376,539.107,0.0
52681.0,STARLINK-4068,PAYLOAD,2023-05-17 02:17:04,15.08843433,9.7e-05,53.2167,77.1687,99.5153,260.5949,-1.565e-05,-5.37e-06,0.0,0 STARLINK-4068,1 52681U 22053AB  23137.09519594 -.00000537  00000-0 -15650-4 0  9990,2 52681  53.2167  77.1687 0000970  99.5153 260.5949 15.08843433 55613,6917.87,95.437,540.406,539.064,0.0
52681.0,STARLINK-4068,PAYLOAD,2023-05-18 02:07:52,15.08838438,9.51e-05,53.2165,72.7087,108.8592,251.2503,1.6004e-05,-3.3e-07,0.0,0 STARLINK-4068,1 52681U 22053AB  23138.08879779 -.00000033  00000-0  16004-4 0  9998,2 52681  53.2165  72.7087 0000951 108.8592 251.2503 15.08838438 56158,6917.885,95.438,540.408,539.092,0.0
52681.0,STARLINK-4068,PAYLOAD,2023-05-18 19:37:06,15.08840245,9.18e-05,53.2159,69.4393,82.9476,277.1621,5.7546e-05,6.28e-06,0.0,0 STARLINK-4068,1 52681U 22053AB  23138.81743572  .00000628  00000-0  57546-4 0  9995,2 52681  53.2159  69.4393 0000918  82.9476 277.1621 15.08840245 56269,6917.88,95.438,540.38,539.11,0.0
52681.0,STARLINK-4068,PAYLOAD,2023-05-19 01:58:38,15.08844889,0.0001021,53.2171,68.2487,94.4112,265.6997,8.4592e-05,1.059e-05,0.0,0 STARLINK-4068,1 52681U 22053AB  23139.08239136  .00001059  00000-0  84592-4 0  9991,2 52681  53.2171  68.2487 0001021  94.4112 265.6997 15.08844889 55912,6917.865,95.437,540.437,539.024,0.0
52681.0,STARLINK-4068,PAYLOAD,2023-05-19 05:09:24,15.08846317,0.0001011,53.217,67.6534,94.0442,266.0666,9.5467e-05,1.232e-05,0.0,0 STARLINK-4068,1 52681U 22053AB  23139.21486988  .00001232  00000-0  95467-4 0  9991,2 52681  53.2170  67.6534 0001011  94.0442 266.0666 15.08846317 56320,6917.861,95.437,540.425,539.027,0.0
52681.0,STARLINK-4068,PAYLOAD,2023-05-20 01:49:26,15.08841616,9.98e-05,53.2167,63.7883,86.9808,273.1298,3.9857e-05,3.47e-06,0.0,0 STARLINK-4068,1 52681U 22053AB  23140.07599544  .00000347  00000-0  39857-4 0  9997,2 52681  53.2167  63.7883 0000998  86.9808 273.1298 15.08841616 56067,6917.875,95.437,540.431,539.05,0.0
